satname,norad_id,inclination_deg,eccentricity,mean_motion_rev_per_day,perigee_km,apogee_km,l1,l2
STARLINK-1169,45061,53.0542,0.0001323,15.06397112,546.3041844712261,548.1366340417153,1 45061U 20006T   25272.27740410  .00003155  00000+0  23062-3 0  9996,2 45061  53.0542 291.2292 0001323  81.9427 278.1712 15.06397112312137
STARLINK-1171,45062,53.0547,0.0001393,15.063955,546.2606468491613,548.1900527998232,1 45062U 20006U   25272.26266220  .00003107  00000+0  22742-3 0  9999,2 45062  53.0547 291.2918 0001393  87.4035 272.7114 15.06395500312136
STARLINK-1133,45064,53.0536,0.0001478,15.06391579,546.2137968791885,548.2609375421353,1 45064U 20006W   25272.27555592 -.00000054  00000+0  15255-4 0  9996,2 45064  53.0536 271.2337 0001478  83.0136 277.1021 15.06391579312416
STARLINK-1150,45067,53.0384,0.000241,16.07288938,252.69248433645498,255.88931458399475,1 45067U 20006Z   25272.85334751  .01112386  72141-3  13831-2 0  9992,2 45067  53.0384 208.3637 0002410 197.8109 162.2839 16.07288938313345
STARLINK-1167,45071,53.0537,0.0001579,15.06413512,546.0766399155673,548.263651912248,1 45071U 20006AD  25271.23980010  .00003823  00000+0  27528-3 0  9997,2 45071  53.0537 275.8859 0001579  87.9141 272.2028 15.06413512312252
STARLINK-1168,45072,53.0553,0.0001447,15.06403408,546.1990165038706,548.2032093537528,1 45072U 20006AE  25271.30983460 -.00000416  00000+0 -90139-5 0  9995,2 45072  53.0553 275.5696 0001447  95.7316 264.3838 15.06403408312267
STARLINK-1172,45074,53.0545,0.0001445,15.06395479,546.2246993179388,548.2261290556389,1 45074U 20006AG  25272.24975551  .00002370  00000+0  17796-3 0  9998,2 45074  53.0545 271.3518 0001445  86.0255 274.0899 15.06395479312409
STARLINK-1153,45080,53.0534,0.0001266,15.0636263,546.4493303461104,548.2028576015045,1 45080U 20006AN  25272.22765380 -.00008362  00000+0 -54367-3 0  9994,2 45080  53.0534 271.4519 0001266  93.5939 266.5195 15.06362630312407
STARLINK-1151,45081,53.0547,0.0001404,15.06396368,546.2503690171307,548.1950100179474,1 45081U 20006AP  25272.27925334  .00001893  00000+0  14596-3 0  9997,2 45081  53.0547 271.2929 0001404  85.1453 274.9696 15.06396368312412
STARLINK-1190,45083,53.0463,0.000805,15.75943551,336.5378691023443,347.3572052071622,1 45083U 20006AR  25272.91670139  .00232954  00000+0  14351-2 0  9992,2 45083  53.0463 236.3922 0008050  69.7827 113.7876 15.75943551  5926
STARLINK-1173,45084,53.0428,0.0006568,15.87687367,304.3764807574862,313.16039974379964,1 45084U 20006AS  25272.91670139  .00449150  00000+0  15629-2 0  9990,2 45084  53.0428 199.6538 0006568  59.0884 315.1779 15.87687367  5832
STARLINK-1179,45085,53.0356,0.0001982,16.08218728,250.42025834387186,253.04833932673046,1 45085U 20006AT  25272.08238108  .00869450  42202-3  10149-2 0  9990,2 45085  53.0356 193.5081 0001982 136.3228 223.7962 16.08218728313481
STARLINK-1185,45087,53.0544,0.0001447,15.06402442,546.2019767167549,548.2061704234466,1 45087U 20006AV  25272.25528831  .00000615  00000+0  60178-4 0  9991,2 45087  53.0544 251.3240 0001447  82.3639 277.7514 15.06402442312693
STARLINK-1183,45088,53.0555,0.0001877,15.06394894,545.9273162754016,548.5270979987608,1 45088U 20006AW  25272.21104941  .00000984  00000+0  84963-4 0  9997,2 45088  53.0555 251.5177 0001877  64.6401 295.4782 15.06394894312688
STARLINK-1176,45090,53.0477,0.0003095,15.85166847,313.78318680211123,317.92676783607203,1 45090U 20006AY  25272.91670139  .00359424  00000+0  14301-2 0  9997,2 45090  53.0477 197.5386 0003095  49.7694  44.9267 15.85166847  5986
STARLINK-1142,45093,53.0374,0.0005669,15.52044582,406.90867029770106,414.6059186487746,1 45093U 20006BB  25272.09633728  .00131833  00000+0  21212-2 0  9993,2 45093  53.0374 196.8965 0005669 104.3395 255.8243 15.52044582313440
STARLINK-1146,45094,53.0405,0.000401,16.12322593,237.8253924694909,243.13352286854206,1 45094U 20006BC  25272.51115525  .01559843  18446-2  14202-2 0  9994,2 45094  53.0405 192.2065 0004010 137.8384 222.2959 16.12322593313546
STARLINK-1147,45095,53.0386,0.0003955,15.9807975,277.1135749488303,282.37996100930195,1 45095U 20006BD  25272.91670139  .00647006  19345-3  13805-2 0  9992,2 45095  53.0386 193.5643 0003955  68.5701 143.6632 15.98079750  6024
STARLINK-1152,45096,53.0454,0.0007302,15.21654114,495.8278542366752,505.8739281529761,1 45096U 20006BE  25272.10370591  .00093343  00000+0  40379-2 0  9992,2 45096  53.0454 237.9533 0007302  69.3448 290.8330 15.21654114312860
STARLINK-1184,45098,53.0544,0.0001488,15.0638748,546.2194326256194,548.280427776047,1 45098U 20006BG  25271.36328628  .00003611  00000+0  26124-3 0  9997,2 45098  53.0544 255.3283 0001488 109.0424 251.0726 15.06387480312559
STARLINK-1193,45100,53.0528,0.0001408,15.06401901,546.2306433965814,548.180819909815,1 45100U 20006BJ  25272.22210978  .00001935  00000+0  14878-3 0  9995,2 45100  53.0528 251.4727 0001408  78.1714 281.9433 15.06401901312681
STARLINK-1143,45179,53.056,0.0003462,15.35322298,457.59599821212123,462.33069889346007,1 45179U 20012B   25272.28691742  .00119305  00000+0  33851-2 0  9998,2 45179  53.0560  22.0576 0003462 262.3045  97.7564 15.35322298310929
STARLINK-1202,45183,53.0554,0.0001363,15.06417012,546.2155011972081,548.1033370010546,1 45183U 20012F   25272.68283230  .00004283  00000+0  30611-3 0  9996,2 45183  53.0554  49.3984 0001363  93.8767 266.2378 15.06417012310572
STARLINK-1216,45185,53.0552,0.0001395,15.06416976,546.1934505660165,548.1256082977279,1 45185U 20012H   25272.60911707  .00007150  00000+0  49816-3 0  9990,2 45185  53.0552  49.7384 0001395  77.2884 282.8261 15.06416976310507
STARLINK-1225,45187,53.0553,0.000134,15.06402996,546.2743801686629,548.1303711213359,1 45187U 20012K   25272.62755345  .00001219  00000+0  10069-3 0  9996,2 45187  53.0553  49.6537 0001340  91.0665 269.0477 15.06402996310558
STARLINK-1230,45189,53.0544,0.0001279,15.06418594,546.2688258006037,548.0403153843608,1 45189U 20012M   25272.69759733  .00010417  00000+0  71681-3 0  9997,2 45189  53.0544  49.3405 0001279  80.8417 279.2716 15.06418594307795
STARLINK-1234,45190,53.0561,0.0001683,15.06431095,545.9507377577893,548.2817780043915,1 45190U 20012N   25272.64966571  .00022462  00000+0  15208-2 0  9999,2 45190  53.0561   9.5586 0001683  99.1948 260.9232 15.06431095311027
STARLINK-1240,45194,53.0351,0.0006427,16.21759069,210.5428766207533,219.01741231825508,1 45194U 20012S   25272.63812774  .02142628  11880-4  93607-3 0  9999,2 45194  53.0351 346.8054 0006427   0.2341 359.8699 16.21759069311337
STARLINK-1269,45197,53.0552,0.0001406,15.06421107,546.1731738666203,548.1205636905206,1 45197U 20012V   25272.64229846  .00006988  00000+0  48726-3 0  9990,2 45197  53.0552  49.5918 0001406  81.5816 278.5332 15.06421107310533
STARLINK-1154,45198,53.0558,0.0001332,15.06379344,546.3524014660861,548.1973311872762,1 45198U 20012W   25272.63308955 -.00006116  00000+0 -39229-3 0  9992,2 45198  53.0558  29.6276 0001332  85.9138 274.2004 15.06379344310780
STARLINK-1199,45201,53.0553,0.0001981,15.06359884,545.9625745228614,548.7064463352935,1 45201U 20012Z   25272.64416463  .00032817  00000+0  22142-2 0  9992,2 45201  53.0553  29.5814 0001981  76.9377 283.1833 15.06359884310845
STARLINK-1208,45205,53.0346,0.0002598,16.15201979,230.89373575928857,234.3286805282396,1 45205U 20012AD  25272.55503145  .01379677  14456-2  10224-2 0  9990,2 45205  53.0346 329.7374 0002598  19.4530 340.6604 16.15201979311694
STARLINK-1209,45206,53.0553,0.0001422,15.06448232,546.0789742041406,548.0485012939562,1 45206U 20012AE  25272.58699627  .00020223  00000+0  13709-2 0  9992,2 45206  53.0553   9.8362 0001422  80.4136 279.7014 15.06448232310165
STARLINK-1210,45207,53.0295,0.0012354,15.48538329,412.60153894104224,429.4008495914359,1 45207U 20012AF  25271.47658915  .00116627  00000+0  21247-2 0  9995,2 45207  53.0295 345.5255 0012354 292.9104  67.0599 15.48538329311363
STARLINK-1231,45212,53.0541,0.0002207,15.09736789,535.4774491766893,538.5297922466716,1 45212U 20012AL  25272.69063919  .00057368  00000+0  35060-2 0  9994,2 45212  53.0541  28.7362 0002207 235.1774 124.9009 15.09736789310815
STARLINK-1271,45217,53.0558,0.0001376,15.06413356,546.2177016952683,548.1235463533994,1 45217U 20012AR  25272.56305230  .00020261  00000+0  13747-2 0  9990,2 45217  53.0558  29.9434 0001376  90.9358 269.1788 15.06413356310839
STARLINK-1191,45222,53.0563,0.0001502,15.06406186,546.1524142983644,548.2327833098452,1 45222U 20012AW  25272.63860547 -.00000448  00000+0 -11165-4 0  9992,2 45222  53.0563   9.6046 0001502  86.2027 273.9133 15.06406186311120
STARLINK-1212,45223,53.0559,0.0001527,15.0641395,546.111309331186,548.2262977235823,1 45223U 20012AX  25272.59079150  .00024916  00000+0  16851-2 0  9999,2 45223  53.0559  10.4743 0001527  87.5796 272.5367 15.06413950311114
STARLINK-1215,45225,53.0556,0.0001111,15.06393069,546.4633919516391,548.0022091213186,1 45225U 20012AZ  25271.55127787  .00006603  00000+0  46184-3 0  9992,2 45225  53.0556  14.4857 0001111  62.2619 297.8482 15.06393069310919
STARLINK-1217,45226,53.0422,0.0001883,15.94040636,289.73309713103936,292.24468994254585,1 45226U 20012BA  25272.91670139  .00562743  13919-3  14976-2 0  9990,2 45226  53.0422 314.0090 0001883   2.4705 216.5922 15.94040636  6003
STARLINK-1221,45227,53.0695,0.0002553,15.35386226,458.02781928762306,461.519256408249,1 45227U 20012BB  25272.11333133  .00023046  00000+0  66978-3 0  9994,2 45227  53.0695 311.5145 0002553 209.6423 150.4435 15.35386226311830
STARLINK-1222,45228,53.0561,0.0001426,15.06438177,546.1070153833116,548.0820914223423,1 45228U 20012BC  25272.64598301  .00013148  00000+0  89902-3 0  9997,2 45228  53.0561   9.5693 0001426  89.2254 270.8899 15.06438177311019
STARLINK-1226,45229,53.0562,0.0002408,15.06437792,545.4281372806063,548.7633293649751,1 45229U 20012BD  25272.54276992  .00012620  00000+0  86369-3 0  9994,2 45229  53.0562  10.0350 0002408  72.6045 287.5207 15.06437792311002
